[Satellite]
VERSION=1.1
NAME=NJUST-1
NICKNAME=NJUST-1
TLE1=1 42722U 98067MB  17185.88507088  .00007874  00000-0  12018-3 0  9994
TLE2=2 42722  51.6406 309.8010 0008068  14.0910 346.0305 15.55442069  6333
